{
  "type": "FeatureCollection",
  "features": [
    {
      "type": "Feature",
      "properties": {
        "norad_id": 26766,
        "name": "INTELSAT 10 (IS-10)",
        "group": "intelsat",
        "lat": 8.583000795495114,
        "lon": 144.5916485788518,
        "alt_km": 36148.57333805297,
        "timestamp": "2025-12-12T18:57:43.799753+00:00",
        "meta_object_name": "INTELSAT 10 (IS-10)",
        "meta_object_id": "2001-019A",
        "meta_epoch": "2025-12-11T14:11:41.135712",
        "meta_mean_motion": 0.99078808,
        "meta_eccentricity": 0.00077853,
        "meta_inclination": 8.6274,
        "meta_ra_of_asc_node": 61.1692,
        "meta_arg_of_pericenter": 224.4537,
        "meta_mean_anomaly": 151.554,
        "meta_ephemeris_type": 0,
        "meta_classification_type": "U",
        "meta_norad_cat_id": 26766,
        "meta_element_set_no": 999,
        "meta_rev_at_epoch": 4372,
        "meta_bstar": 0,
        "meta_mean_motion_dot": -2.86e-06,
        "meta_mean_motion_ddot": 0,
        "tle_line1": "1 26766U 01019A   25345.59144833 -.00000286  00000+0  00000+0 0  9999",
        "tle_line2": "2 26766   8.6274  61.1692 0007785 224.4537 151.5540  0.99078808 43721"
      },
      "geometry": {
        "type": "Point",
        "coordinates": [
          144.5916485788518,
          8.583000795495114
        ]
      }
    },
    {
      "type": "Feature",
      "properties": {
        "norad_id": 26900,
        "name": "INTELSAT 902 (IS-902)",
        "group": "intelsat",
        "lat": -4.9952586976170705,
        "lon": -44.00534365787562,
        "alt_km": 35776.502484275996,
        "timestamp": "2025-12-12T18:57:43.799777+00:00",
        "meta_object_name": "INTELSAT 902 (IS-902)",
        "meta_object_id": "2001-039A",
        "meta_epoch": "2025-12-11T04:42:42.842016",
        "meta_mean_motion": 1.00272526,
        "meta_eccentricity": 0.00044264,
        "meta_inclination": 5.6424,
        "meta_ra_of_asc_node": 74.0881,
        "meta_arg_of_pericenter": 184.9809,
        "meta_mean_anomaly": 201.6699,
        "meta_ephemeris_type": 0,
        "meta_classification_type": "U",
        "meta_norad_cat_id": 26900,
        "meta_element_set_no": 999,
        "meta_rev_at_epoch": 8881,
        "meta_bstar": 0,
        "meta_mean_motion_dot": -2.78e-06,
        "meta_mean_motion_ddot": 0,
        "tle_line1": "1 26900U 01039A   25345.19632919 -.00000278  00000+0  00000+0 0  9995",
        "tle_line2": "2 26900   5.6424  74.0881 0004426 184.9809 201.6699  1.00272526 88816"
      },
      "geometry": {
        "type": "Point",
        "coordinates": [
          -44.00534365787562,
          -4.9952586976170705
        ]
      }
    },
    {
      "type": "Feature",
      "properties": {
        "norad_id": 27380,
        "name": "INTELSAT 904 (IS-904)",
        "group": "intelsat",
        "lat": -6.414732009282144,
        "lon": -25.37117042515457,
        "alt_km": 35781.605565141654,
        "timestamp": "2025-12-12T18:57:43.799793+00:00",
        "meta_object_name": "INTELSAT 904 (IS-904)",
        "meta_object_id": "2002-007A",
        "meta_epoch": "2025-12-12T03:03:24.449184",
        "meta_mean_motion": 1.002728,
        "meta_eccentricity": 0.00015225,
        "meta_inclination": 6.4535,
        "meta_ra_of_asc_node": 71.4393,
        "meta_arg_of_pericenter": 225.8238,
        "meta_mean_anomaly": 158.1601,
        "meta_ephemeris_type": 0,
        "meta_classification_type": "U",
        "meta_norad_cat_id": 27380,
        "meta_element_set_no": 999,
        "meta_rev_at_epoch": 4989,
        "meta_bstar": 0,
        "meta_mean_motion_dot": -2.17e-06,
        "meta_mean_motion_ddot": 0,
        "tle_line1": "1 27380U 02007A   25346.12736631 -.00000217  00000+0  00000+0 0  9997",
        "tle_line2": "2 27380   6.4535  71.4393 0001522 225.8238 158.1601  1.00272800 49894"
      },
      "geometry": {
        "type": "Point",
        "coordinates": [
          -25.37117042515457,
          -6.414732009282144
        ]
      }
    },
    {
      "type": "Feature",
      "properties": {
        "norad_id": 27426,
        "name": "DIRECTV 5 (TEMPO 1)",
        "group": "intelsat",
        "lat": 0.10578524769271833,
        "lon": -103.96788139033583,
        "alt_km": 35771.9220606196,
        "timestamp": "2025-12-12T18:57:43.799807+00:00",
        "meta_object_name": "DIRECTV 5 (TEMPO 1)",
        "meta_object_id": "2002-023A",
        "meta_epoch": "2025-12-12T06:06:31.016160",
        "meta_mean_motion": 1.00272024,
        "meta_eccentricity": 0.00034777,
        "meta_inclination": 4.4013,
        "meta_ra_of_asc_node": 77.6586,
        "meta_arg_of_pericenter": 195.3534,
        "meta_mean_anomaly": 149.6957,
        "meta_ephemeris_type": 0,
        "meta_classification_type": "U",
        "meta_norad_cat_id": 27426,
        "meta_element_set_no": 999,
        "meta_rev_at_epoch": 8624,
        "meta_bstar": 0,
        "meta_mean_motion_dot": -4.8e-07,
        "meta_mean_motion_ddot": 0,
        "tle_line1": "1 27426U 02023A   25346.25452565 -.00000048  00000+0  00000+0 0  9993",
        "tle_line2": "2 27426   4.4013  77.6586 0003477 195.3534 149.6957  1.00272024 86244"
      },
      "geometry": {
        "type": "Point",
        "coordinates": [
          -103.96788139033583,
          0.10578524769271833
        ]
      }
    },
    {
      "type": "Feature",
      "properties": {
        "norad_id": 27438,
        "name": "INTELSAT 905 (IS-905)",
        "group": "intelsat",
        "lat": 2.4467499322815303,
        "lon": -130.92580576069096,
        "alt_km": 35776.47531455264,
        "timestamp": "2025-12-12T18:57:43.799819+00:00",
        "meta_object_name": "INTELSAT 905 (IS-905)",
        "meta_object_id": "2002-027A",
        "meta_epoch": "2025-12-12T02:04:38.528256",
        "meta_mean_motion": 1.00273145,
        "meta_eccentricity": 0.00027303,
        "meta_inclination": 6.2844,
        "meta_ra_of_asc_node": 72.0639,
        "meta_arg_of_pericenter": 196.9989,
        "meta_mean_anomaly": 65.9362,
        "meta_ephemeris_type": 0,
        "meta_classification_type": "U",
        "meta_norad_cat_id": 27438,
        "meta_element_set_no": 999,
        "meta_rev_at_epoch": 4948,
        "meta_bstar": 0,
        "meta_mean_motion_dot": 1.02e-06,
        "meta_mean_motion_ddot": 0,
        "tle_line1": "1 27438U 02027A   25346.08655704  .00000102  00000+0  00000+0 0  9991",
        "tle_line2": "2 27438   6.2844  72.0639 0002730 196.9989  65.9362  1.00273145 49489"
      },
      "geometry": {
        "type": "Point",
        "coordinates": [
          -130.92580576069096,
          2.4467499322815303
        ]
      }
    },
    {
      "type": "Feature",
      "properties": {
        "norad_id": 27445,
        "name": "GALAXY 3C (G-3C)",
        "group": "intelsat",
        "lat": -0.6296412157174123,
        "lon": -88.70734571799562,
        "alt_km": 35787.171682154745,
        "timestamp": "2025-12-12T18:57:43.799832+00:00",
        "meta_object_name": "GALAXY 3C (G-3C)",
        "meta_object_id": "2002-030A",
        "meta_epoch": "2025-12-12T06:10:53.097600",
        "meta_mean_motion": 1.00271461,
        "meta_eccentricity": 0.00010934,
        "meta_inclination": 3.2633,
        "meta_ra_of_asc_node": 80.5121,
        "meta_arg_of_pericenter": 89.5592,
        "meta_mean_anomaly": 268.9925,
        "meta_ephemeris_type": 0,
        "meta_classification_type": "U",
        "meta_norad_cat_id": 27445,
        "meta_element_set_no": 999,
        "meta_rev_at_epoch": 4461,
        "meta_bstar": 0,
        "meta_mean_motion_dot": -1.43e-06,
        "meta_mean_motion_ddot": 0,
        "tle_line1": "1 27445U 02030A   25346.25755900 -.00000143  00000+0  00000+0 0  9997",
        "tle_line2": "2 27445   3.2633  80.5121 0001093  89.5592 268.9925  1.00271461 44617"
      },
      "geometry": {
        "type": "Point",
        "coordinates": [
          -88.70734571799562,
          -0.6296412157174123
        ]
      }
    },
    {
      "type": "Feature",
      "properties": {
        "norad_id": 27513,
        "name": "INTELSAT 906 (IS-906)",
        "group": "intelsat",
        "lat": -0.4377112684442794,
        "lon": 70.33220203239846,
        "alt_km": 35811.17312722986,
        "timestamp": "2025-12-12T18:57:43.799849+00:00",
        "meta_object_name": "INTELSAT 906 (IS-906)",
        "meta_object_id": "2002-041A",
        "meta_epoch": "2025-12-12T05:13:28.596576",
        "meta_mean_motion": 1.00271482,
        "meta_eccentricity": 0.00061774,
        "meta_inclination": 5.3275,
        "meta_ra_of_asc_node": 75.2375,
        "meta_arg_of_pericenter": 192.3727,
        "meta_mean_anomaly": 316.0559,
        "meta_ephemeris_type": 0,
        "meta_classification_type": "U",
        "meta_norad_cat_id": 27513,
        "meta_element_set_no": 999,
        "meta_rev_at_epoch": 8515,
        "meta_bstar": 0,
        "meta_mean_motion_dot": 2.2e-07,
        "meta_mean_motion_ddot": 0,
        "tle_line1": "1 27513U 02041A   25346.21769209  .00000022  00000+0  00000+0 0  9993",
        "tle_line2": "2 27513   5.3275  75.2375 0006177 192.3727 316.0559  1.00271482 85156"
      },
      "geometry": {
        "type": "Point",
        "coordinates": [
          70.33220203239846,
          -0.4377112684442794
        ]
      }
    }
  ]
}